STARLINK-35893          
1 66565U 25268J   25357.00001157 -.00104909  00000+0 -14576-2 0  9996
2 66565  43.0006  61.0087 0001587 269.3237   8.6374 15.56458702  6106
STARLINK-35871          
1 66566U 25268K   25357.00001157 -.00098958  00000+0 -13737-2 0  9991
2 66566  43.0007  61.0038 0001478 261.9863  17.8929 15.56456271  6103
STARLINK-35825          
1 66567U 25268L   25357.00001157 -.00097458  00000+0 -13527-2 0  9993
2 66567  43.0007  60.9996 0001373 271.8844   9.9096 15.56454435  6105
STARLINK-35803          
1 66568U 25268M   25357.00001157  .00347456  00000+0  46208-2 0  9990
2 66568  43.0004  61.0497 0000855 253.1147   7.4749 15.56220249  6106
STARLINK-35835          
1 66569U 25268N   25357.00001157 -.00079010  00000+0 -10935-2 0  9999
2 66569  43.0006  60.9894 0001529 267.9754  17.6567 15.56444522  6107
STARLINK-35834          
1 66570U 25268P   25356.58335648 -.02021572  00000+0 -38533-1 0  9993
2 66570  43.0000  63.4773 0001411 285.4866 171.4908 15.50644432  6098
STARLINK-35836          
1 66571U 25268Q   25357.00001157 -.02051897  00000+0 -40650-1 0  9993
2 66571  43.0006  61.0244 0001223 267.8662   3.1599 15.49619614  6056
STARLINK-35870          
1 66572U 25268R   25357.00001157 -.02047250  00000+0 -38491-1 0  9992
2 66572  43.0008  61.0037 0001180 264.0479  15.9359 15.51069456  6103
STARLINK-35650          
1 66573U 25268S   25357.00001157 -.02010967  00000+0 -36647-1 0  9999
2 66573  43.0008  60.9899 0001512 246.6762  38.5505 15.51869450  6104
STARLINK-35812          
1 66574U 25268T   25357.00001157 -.02084171  00000+0 -36933-1 0  9996
2 66574  43.0006  60.9772 0001308 265.4217  24.4319 15.52759121  6101
STARLINK-35810          
1 66575U 25268U   25357.00001157 -.02078338  00000+0 -35705-1 0  9991
2 66575  43.0005  60.9685 0001304 259.0631  34.8819 15.53595718  6054
STARLINK-35814          
1 66576U 25268V   25357.00001157 -.02089122  00000+0 -34813-1 0  9994
2 66576  43.0007  60.9582 0001653 256.8542  40.6240 15.54435936  6101
