CCSDS_OMM_VERS = 2.0
CREATION_DATE  = 
ORIGINATOR     = 

OBJECT_NAME    = STARLINK-35893
OBJECT_ID      = 2025-268J
CENTER_NAME    = EARTH
REF_FRAME      = TEME
TIME_SYSTEM    = UTC
MEAN_ELEMENT_THEORY = SGP/SGP4

EPOCH          = 2025-12-23T00:00:00.999648
MEAN_MOTION    = 15.56458702
ECCENTRICITY   = .00015877
INCLINATION    = 43.0006
RA_OF_ASC_NODE = 61.0087
ARG_OF_PERICENTER = 269.3237
MEAN_ANOMALY   = 8.6374

EPHEMERIS_TYPE = 0
CLASSIFICATION_TYPE = U
NORAD_CAT_ID   = 66565
ELEMENT_SET_NO = 999
REV_AT_EPOCH   = 610
BSTAR          = -.14575573E-2
MEAN_MOTION_DOT = -.104909E-2
MEAN_MOTION_DDOT = 0

CCSDS_OMM_VERS = 2.0
CREATION_DATE  = 
ORIGINATOR     = 

OBJECT_NAME    = STARLINK-35871
OBJECT_ID      = 2025-268K
CENTER_NAME    = EARTH
REF_FRAME      = TEME
TIME_SYSTEM    = UTC
MEAN_ELEMENT_THEORY = SGP/SGP4

EPOCH          = 2025-12-23T00:00:00.999648
MEAN_MOTION    = 15.56456271
ECCENTRICITY   = .00014782
INCLINATION    = 43.0007
RA_OF_ASC_NODE = 61.0038
ARG_OF_PERICENTER = 261.9863
MEAN_ANOMALY   = 17.8929

EPHEMERIS_TYPE = 0
CLASSIFICATION_TYPE = U
NORAD_CAT_ID   = 66566
ELEMENT_SET_NO = 999
REV_AT_EPOCH   = 610
BSTAR          = -.13737004E-2
MEAN_MOTION_DOT = -.98958E-3
MEAN_MOTION_DDOT = 0

CCSDS_OMM_VERS = 2.0
CREATION_DATE  = 
ORIGINATOR     = 

OBJECT_NAME    = STARLINK-35825
OBJECT_ID      = 2025-268L
CENTER_NAME    = EARTH
REF_FRAME      = TEME
TIME_SYSTEM    = UTC
MEAN_ELEMENT_THEORY = SGP/SGP4

EPOCH          = 2025-12-23T00:00:00.999648
MEAN_MOTION    = 15.56454435
ECCENTRICITY   = .00013735
INCLINATION    = 43.0007
RA_OF_ASC_NODE = 60.9996
ARG_OF_PERICENTER = 271.8844
MEAN_ANOMALY   = 9.9096

EPHEMERIS_TYPE = 0
CLASSIFICATION_TYPE = U
NORAD_CAT_ID   = 66567
ELEMENT_SET_NO = 999
REV_AT_EPOCH   = 610
BSTAR          = -.13526581E-2
MEAN_MOTION_DOT = -.97458E-3
MEAN_MOTION_DDOT = 0

CCSDS_OMM_VERS = 2.0
CREATION_DATE  = 
ORIGINATOR     = 

OBJECT_NAME    = STARLINK-35803
OBJECT_ID      = 2025-268M
CENTER_NAME    = EARTH
REF_FRAME      = TEME
TIME_SYSTEM    = UTC
MEAN_ELEMENT_THEORY = SGP/SGP4

EPOCH          = 2025-12-23T00:00:00.999648
MEAN_MOTION    = 15.56220249
ECCENTRICITY   = .00008552
INCLINATION    = 43.0004
RA_OF_ASC_NODE = 61.0497
ARG_OF_PERICENTER = 253.1147
MEAN_ANOMALY   = 7.4749

EPHEMERIS_TYPE = 0
CLASSIFICATION_TYPE = U
NORAD_CAT_ID   = 66568
ELEMENT_SET_NO = 999
REV_AT_EPOCH   = 610
BSTAR          = .46207768E-2
MEAN_MOTION_DOT = .347456E-2
MEAN_MOTION_DDOT = 0

CCSDS_OMM_VERS = 2.0
CREATION_DATE  = 
ORIGINATOR     = 

OBJECT_NAME    = STARLINK-35835
OBJECT_ID      = 2025-268N
CENTER_NAME    = EARTH
REF_FRAME      = TEME
TIME_SYSTEM    = UTC
MEAN_ELEMENT_THEORY = SGP/SGP4

EPOCH          = 2025-12-23T00:00:00.999648
MEAN_MOTION    = 15.56444522
ECCENTRICITY   = .00015299
INCLINATION    = 43.0006
RA_OF_ASC_NODE = 60.9894
ARG_OF_PERICENTER = 267.9754
MEAN_ANOMALY   = 17.6567

EPHEMERIS_TYPE = 0
CLASSIFICATION_TYPE = U
NORAD_CAT_ID   = 66569
ELEMENT_SET_NO = 999
REV_AT_EPOCH   = 610
BSTAR          = -.10934951E-2
MEAN_MOTION_DOT = -.7901E-3
MEAN_MOTION_DDOT = 0

CCSDS_OMM_VERS = 2.0
CREATION_DATE  = 
ORIGINATOR     = 

OBJECT_NAME    = STARLINK-35834
OBJECT_ID      = 2025-268P
CENTER_NAME    = EARTH
REF_FRAME      = TEME
TIME_SYSTEM    = UTC
MEAN_ELEMENT_THEORY = SGP/SGP4

EPOCH          = 2025-12-22T14:00:01.999872
MEAN_MOTION    = 15.50644432
ECCENTRICITY   = .00014112
INCLINATION    = 43.0000
RA_OF_ASC_NODE = 63.4773
ARG_OF_PERICENTER = 285.4866
MEAN_ANOMALY   = 171.4908

EPHEMERIS_TYPE = 0
CLASSIFICATION_TYPE = U
NORAD_CAT_ID   = 66570
ELEMENT_SET_NO = 999
REV_AT_EPOCH   = 609
BSTAR          = -.38532989E-1
MEAN_MOTION_DOT = -.2021572E-1
MEAN_MOTION_DDOT = 0

CCSDS_OMM_VERS = 2.0
CREATION_DATE  = 
ORIGINATOR     = 

OBJECT_NAME    = STARLINK-35836
OBJECT_ID      = 2025-268Q
CENTER_NAME    = EARTH
REF_FRAME      = TEME
TIME_SYSTEM    = UTC
MEAN_ELEMENT_THEORY = SGP/SGP4

EPOCH          = 2025-12-23T00:00:00.999648
MEAN_MOTION    = 15.49619614
ECCENTRICITY   = .00012232
INCLINATION    = 43.0006
RA_OF_ASC_NODE = 61.0244
ARG_OF_PERICENTER = 267.8662
MEAN_ANOMALY   = 3.1599

EPHEMERIS_TYPE = 0
CLASSIFICATION_TYPE = U
NORAD_CAT_ID   = 66571
ELEMENT_SET_NO = 999
REV_AT_EPOCH   = 605
BSTAR          = -.4064981E-1
MEAN_MOTION_DOT = -.2051897E-1
MEAN_MOTION_DDOT = 0

CCSDS_OMM_VERS = 2.0
CREATION_DATE  = 
ORIGINATOR     = 

OBJECT_NAME    = STARLINK-35870
OBJECT_ID      = 2025-268R
CENTER_NAME    = EARTH
REF_FRAME      = TEME
TIME_SYSTEM    = UTC
MEAN_ELEMENT_THEORY = SGP/SGP4

EPOCH          = 2025-12-23T00:00:00.999648
MEAN_MOTION    = 15.51069456
ECCENTRICITY   = .00011801
INCLINATION    = 43.0008
RA_OF_ASC_NODE = 61.0037
ARG_OF_PERICENTER = 264.0479
MEAN_ANOMALY   = 15.9359

EPHEMERIS_TYPE = 0
CLASSIFICATION_TYPE = U
NORAD_CAT_ID   = 66572
ELEMENT_SET_NO = 999
REV_AT_EPOCH   = 610
BSTAR          = -.38491327E-1
MEAN_MOTION_DOT = -.204725E-1
MEAN_MOTION_DDOT = 0

CCSDS_OMM_VERS = 2.0
CREATION_DATE  = 
ORIGINATOR     = 

OBJECT_NAME    = STARLINK-35650
OBJECT_ID      = 2025-268S
CENTER_NAME    = EARTH
REF_FRAME      = TEME
TIME_SYSTEM    = UTC
MEAN_ELEMENT_THEORY = SGP/SGP4

EPOCH          = 2025-12-23T00:00:00.999648
MEAN_MOTION    = 15.51869450
ECCENTRICITY   = .00015124
INCLINATION    = 43.0008
RA_OF_ASC_NODE = 60.9899
ARG_OF_PERICENTER = 246.6762
MEAN_ANOMALY   = 38.5505

EPHEMERIS_TYPE = 0
CLASSIFICATION_TYPE = U
NORAD_CAT_ID   = 66573
ELEMENT_SET_NO = 999
REV_AT_EPOCH   = 610
BSTAR          = -.36647311E-1
MEAN_MOTION_DOT = -.2010967E-1
MEAN_MOTION_DDOT = 0

CCSDS_OMM_VERS = 2.0
CREATION_DATE  = 
ORIGINATOR     = 

OBJECT_NAME    = STARLINK-35812
OBJECT_ID      = 2025-268T
CENTER_NAME    = EARTH
REF_FRAME      = TEME
TIME_SYSTEM    = UTC
MEAN_ELEMENT_THEORY = SGP/SGP4

EPOCH          = 2025-12-23T00:00:00.999648
MEAN_MOTION    = 15.52759121
ECCENTRICITY   = .00013089
INCLINATION    = 43.0006
RA_OF_ASC_NODE = 60.9772
ARG_OF_PERICENTER = 265.4217
MEAN_ANOMALY   = 24.4319

EPHEMERIS_TYPE = 0
CLASSIFICATION_TYPE = U
NORAD_CAT_ID   = 66574
ELEMENT_SET_NO = 999
REV_AT_EPOCH   = 610
BSTAR          = -.36933173E-1
MEAN_MOTION_DOT = -.2084171E-1
MEAN_MOTION_DDOT = 0

CCSDS_OMM_VERS = 2.0
CREATION_DATE  = 
ORIGINATOR     = 

OBJECT_NAME    = STARLINK-35810
OBJECT_ID      = 2025-268U
CENTER_NAME    = EARTH
REF_FRAME      = TEME
TIME_SYSTEM    = UTC
MEAN_ELEMENT_THEORY = SGP/SGP4

EPOCH          = 2025-12-23T00:00:00.999648
MEAN_MOTION    = 15.53595718
ECCENTRICITY   = .00013045
INCLINATION    = 43.0005
RA_OF_ASC_NODE = 60.9685
ARG_OF_PERICENTER = 259.0631
MEAN_ANOMALY   = 34.8819

EPHEMERIS_TYPE = 0
CLASSIFICATION_TYPE = U
NORAD_CAT_ID   = 66575
ELEMENT_SET_NO = 999
REV_AT_EPOCH   = 605
BSTAR          = -.35705029E-1
MEAN_MOTION_DOT = -.2078338E-1
MEAN_MOTION_DDOT = 0

CCSDS_OMM_VERS = 2.0
CREATION_DATE  = 
ORIGINATOR     = 

OBJECT_NAME    = STARLINK-35814
OBJECT_ID      = 2025-268V
CENTER_NAME    = EARTH
REF_FRAME      = TEME
TIME_SYSTEM    = UTC
MEAN_ELEMENT_THEORY = SGP/SGP4

EPOCH          = 2025-12-23T00:00:00.999648
MEAN_MOTION    = 15.54435936
ECCENTRICITY   = .00016533
INCLINATION    = 43.0007
RA_OF_ASC_NODE = 60.9582
ARG_OF_PERICENTER = 256.8542
MEAN_ANOMALY   = 40.6240

EPHEMERIS_TYPE = 0
CLASSIFICATION_TYPE = U
NORAD_CAT_ID   = 66576
ELEMENT_SET_NO = 999
REV_AT_EPOCH   = 610
BSTAR          = -.34812696E-1
MEAN_MOTION_DOT = -.2089122E-1
MEAN_MOTION_DDOT = 0

